{
  "norad_id": 57825,
  "name": "STARLINK-30377",
  "history": [
    {
      "epoch": "2026-03-28T19:10:15.347136Z",
      "apogee_km": 483.956661778484,
      "perigee_km": 482.1604007883925,
      "latitude_deg": 2.313355988117165e-05,
      "longitude_deg": 12.23642027195327,
      "height_km": 482.84714733718374,
      "semi_major_axis_km": 6861.195531283438,
      "eccentricity": 0.0001309,
      "inclination_deg": 43.0034,
      "raan_deg": 126.0144,
      "arg_perigee_deg": 269.259,
      "mean_anomaly_deg": 90.8112,
      "mean_motion_rev_day": 15.27576849
    },
    {
      "epoch": "2026-03-29T09:17:39.936192Z",
      "apogee_km": 483.70887472856066,
      "perigee_km": 482.4162247333916,
      "latitude_deg": 2.001176321116009e-05,
      "longitude_deg": 156.48023125223256,
      "height_km": 482.8487309545776,
      "semi_major_axis_km": 6861.199549730976,
      "eccentricity": 9.42e-05,
      "inclination_deg": 43.0029,
      "raan_deg": 122.6907,
      "arg_perigee_deg": 269.1531,
      "mean_anomaly_deg": 90.9213,
      "mean_motion_rev_day": 15.27575507
    },
    {
      "epoch": "2026-03-30T10:24:10.942272Z",
      "apogee_km": 484.0451199641302,
      "perigee_km": 482.1757044941942,
      "latitude_deg": -1.4324744320789404e-05,
      "longitude_deg": 132.9132293622921,
      "height_km": 482.97613810138085,
      "semi_major_axis_km": 6861.2474122291615,
      "eccentricity": 0.00013623,
      "inclination_deg": 43.0001,
      "raan_deg": 116.7841,
      "arg_perigee_deg": 264.5326,
      "mean_anomaly_deg": 95.537,
      "mean_motion_rev_day": 15.27559523
    },
    {
      "epoch": "2026-03-30T18:14:57.649344Z",
      "apogee_km": 484.0401198696236,
      "perigee_km": 482.13311137789697,
      "latitude_deg": -2.894042051236975e-05,
      "longitude_deg": 13.048964955884086,
      "height_km": 482.885262896804,
      "semi_major_axis_km": 6861.2236156237595,
      "eccentricity": 0.00013897,
      "inclination_deg": 43.0021,
      "raan_deg": 114.9367,
      "arg_perigee_deg": 268.6948,
      "mean_anomaly_deg": 91.3744,
      "mean_motion_rev_day": 15.2756747
    },
    {
      "epoch": "2026-03-31T08:22:22.080288Z",
      "apogee_km": 484.07420876916603,
      "perigee_km": 482.07485172925135,
      "latitude_deg": 2.2938216244367613e-05,
      "longitude_deg": 157.29349583839812,
      "height_km": 482.8565536015408,
      "semi_major_axis_km": 6861.211530249208,
      "eccentricity": 0.0001457,
      "inclination_deg": 43.0019,
      "raan_deg": 111.613,
      "arg_perigee_deg": 269.7097,
      "mean_anomaly_deg": 90.3588,
      "mean_motion_rev_day": 15.27571506
    },
    {
      "epoch": "2026-04-01T17:19:37.235136Z",
      "apogee_km": 487.000572864491,
      "perigee_km": 479.10608727071576,
      "latitude_deg": 6.425562213467634e-06,
      "longitude_deg": 13.868253533997335,
      "height_km": 483.34222581438905,
      "semi_major_axis_km": 6861.190330067603,
      "eccentricity": 0.0005753,
      "inclination_deg": 42.997,
      "raan_deg": 103.8543,
      "arg_perigee_deg": 262.5719,
      "mean_anomaly_deg": 97.4479,
      "mean_motion_rev_day": 15.27578586
    },
    {
      "epoch": "2026-04-02T16:51:59.269248Z",
      "apogee_km": 484.9449796471008,
      "perigee_km": 481.227568877106,
      "latitude_deg": -4.563146523201975e-05,
      "longitude_deg": 14.2724590389532,
      "height_km": 482.1400896055458,
      "semi_major_axis_km": 6861.223274262103,
      "eccentricity": 0.0002709,
      "inclination_deg": 43.0054,
      "raan_deg": 98.3171,
      "arg_perigee_deg": 292.9386,
      "mean_anomaly_deg": 67.1179,
      "mean_motion_rev_day": 15.27567584
    },
    {
      "epoch": "2026-04-02T16:51:59.270112Z",
      "apogee_km": 484.9451168715659,
      "perigee_km": 481.22743165264,
      "latitude_deg": -4.4182409128815073e-05,
      "longitude_deg": 14.272456974139036,
      "height_km": 482.14003613050494,
      "semi_major_axis_km": 6861.223274262103,
      "eccentricity": 0.00027092,
      "inclination_deg": 43.0054,
      "raan_deg": 98.3171,
      "arg_perigee_deg": 292.9386,
      "mean_anomaly_deg": 67.1179,
      "mean_motion_rev_day": 15.27567584
    }
  ]
}